#dP2021  7  1  0  0  0.00000000      97 __u+U IGS14 FIT  IAC
## 2164 345600.00000000   900.00000000 59396 0.0000000000000
+  124   C01C02C03C04C05C06C07C08C09C10C11C12C13C14C16C19C20
+        C21C22C23C24C25C26C27C28C29C30C32C33C34C35C36C37C38
+        C39C40C41C42C43C44C45C46C60E01E02E03E04E05E07E08E09
+        E11E12E13E14E15E18E19E21E24E25E26E27E30E31E33E36G01
+        G02G03G04G05G06G07G08G09G10G11G12G13G14G15G16G17G18
+        G19G20G21G22G23G24G25G26G27G28G29G30G31G32J01J02J03
+        J07R01R02R03R04R05R07R08R09R11R12R13R14R15R16R17R18
+        R19R20R21R22R24  0  0  0  0  0  0  0  0  0  0  0  0
++         0  0  0  0  0  0  0  0  0  0  0  0  0  0  0  0  0
++         0  0  0  0  0  0  0  0  0  0  0  0  0  0  0  0  0
++         0  0  0  0  0  0  0  0  0  0  0  0  0  0  0  0  0
++         0  0  0  0  0  0  0  0  0  0  0  0  0  0  0  0  0
++         0  0  0  0  0  0  0  0  0  0  0  0  0  0  0  0  0
++         0  0  0  0  0  0  0  0  0  0  0  0  0  0  0  0  0
++         0  0  0  0  0  0  0  0  0  0  0  0  0  0  0  0  0
++         0  0  0  0  0  0  0  0  0  0  0  0  0  0  0  0  0
%c M  cc GPS ccc cccc cccc cccc cccc ccccc ccccc ccccc ccccc
%c cc cc ccc ccc cccc cccc cccc cccc ccccc ccccc ccccc ccccc
%f  1.2500000  1.025000000  0.00000000000  0.000000000000000
%f  0.0000000  0.000000000  0.00000000000  0.000000000000000
%i    0    0    0    0      0      0      0      0         0
%i    0    0    0    0      0      0      0      0         0
/* INFORMATION & ANALYSIS CENTER (IAC)            FINAL DATA
/* S/V CLOCKS ARE ALIGNED TO GNSS TIME                      
/* G:C1WC2W R:C1PC2P E:C1XC5X C:C2IC6I J:C1CC2S             
/* PCV:IGS14_2163 OL/AL:FES2004  NONE     YN ORB:CoN CLK:CoN
*  2021 07 01 23 30  0.00000000
PC01 -34290.623534  24559.720607    172.216600   -315.422124
PC02   4388.873390  41886.125936  -1479.250942    545.080618
PC03 -14742.246108  39474.421156   -889.486093   -118.566948
PC04 -39597.624105  14491.523441    255.452103   -230.546138
PC05  21878.385035  36015.789585  -1166.290521    -64.170742
PC06 -10251.361932  36712.617471 -16997.928233    571.893300
PC07 -12490.879204  23753.351748  32765.353458    167.124124
PC08 -24260.330919  29641.841448 -17958.120205   -899.444745
PC09  -1512.520746  41775.912415  -2888.356789    405.858482
PC10   2389.039183  28249.381018  31536.346168    -23.387207
PC11  10354.381746  19488.174848 -17052.554183    432.842236
PC12   -162.471516  27895.576879  -1097.817831    825.281759
PC13 -13264.327145  30293.815714 -26214.884054    320.951833
PC14  21168.193397  17291.299283  -5760.868979    846.142081
PC16  -8385.593792  38094.445813 -15602.022375   -935.461389
PC19 -24952.047589 -11903.929499  -3683.085805    893.368877
PC20 -15239.688200 -19474.265727  12916.009189   -857.829806
PC21  -4095.522652  15785.172114 -22628.791571   -935.061532
PC22 -20476.244130   2833.099917 -18726.762386   -948.685534
PC23  25235.689442 -11643.014317   2560.733417   -955.155986
PC24   4354.390600  15954.503496  22478.483127   -918.960694
PC25  21627.970189   1952.650169  17515.307944   -892.362223
PC26 -13335.520801  19716.101643  14587.650869    884.729228
PC27   6336.493300 -26026.864516  -7873.595876    557.477315
PC28  14788.506076 -11217.120085 -20837.919290    -55.640774
PC29 -14945.929300  -9569.145400  21524.239369    413.753148
PC30  -6451.047005 -25558.832052   9178.909806    472.615701
PC32   4056.737409 -15808.705291  22650.693065   -924.111835
PC33  25039.011895  11799.264682   3648.336720   -939.612320
PC34   6893.889325  25163.403502  -9885.668198   -637.673008
PC35 -14547.227644  11307.968918  20938.527048   -206.951402
PC36 -21361.163860  -2726.990807 -17716.285581   -730.094362
PC37  14588.638925 -19289.624185 -13888.212942   -868.729626
PC38 -22050.854475  31067.057221 -18204.252881    158.923179
PC39  -5136.178241  39032.538269 -14863.879085     32.118864
PC40  -3260.910759  23164.283393  35125.557413    176.442001
PC41  20709.753014  -2683.436380  18561.346128   -953.829607
PC42  14653.821084  19563.189873 -13438.371116   -916.232394
PC43  14894.307733  10203.506043 -21284.965734   -802.126705
PC44  -5591.712149  26125.757855   7990.056233    268.041561
PC45 -25175.645354  11814.365378  -2403.294849    482.231445
PC46  -5489.418149 -15291.820536 -22675.045349    198.396809
PC60   7328.001987  41528.868062    460.235575     -0.811097
PE01 -27902.597438   5894.164543   7931.278664  -1141.186642
PE02  27846.427007  -5972.601554  -8048.332932    229.999206
PE03  17108.185504  -4270.832156  23780.775520   -448.079755
PE04  -3398.363561  21576.969529 -19967.727143   -804.382512
PE05  20969.646524  15802.786620  13677.173036   -268.513251
PE07 -12557.672305 -26451.282737   4301.607691   -556.617071
PE08   2934.373784 -21729.972654  19883.156580   5977.036504
PE09  12851.188639  26354.397818  -4120.843736   5614.658156
PE11   1725.619809  22785.725140 -18821.940481   5776.943375
PE12 -13209.624034  26445.759829  -1336.579666   5132.098173
PE13  -1374.734414 -23025.152778  18550.055589    418.475006
PE14  21654.343272   2449.995192 -24174.936238  -1485.666461
PE15  13117.533073 -26502.478622   1359.033769    805.753628
PE18 -14684.229921   3106.187304  18126.287938  -1627.798586
PE19 -18052.202778   1784.365760 -23380.131870    316.333655
PE21 -27119.789724  -6205.160690 -10102.503802   -673.858308
PE24   9561.349678  15591.577753  23261.040940   -985.164605
PE25  27020.959674   6340.211171  10299.709711   -538.678421
PE26 -15595.747886  -5222.242986  24606.564473   1628.096945
PE27 -10623.333176 -15285.150167 -23009.203656    -66.484229
PE30  13153.555165 -15036.919946 -21843.682305   2818.099826
PE31 -11997.497106  15324.078721  22311.295384   -482.804514
PE33 -19854.096386  14366.777710  16593.176126   -468.308425
PE36  15033.790787   5994.568922 -24787.695722   -228.654265
PG01 -13193.387567  22108.262004  -6003.315243    641.140605
PG02  19310.844231  -9571.021632 -14910.731087   -616.564232
PG03  -9573.408032  13098.321455 -21095.912167   -208.097298
PG04  -3138.145298  22022.571715 -14459.265253   -201.400187
PG05  21643.691270  -7047.276809  13680.034745    -46.634512
PG06  15975.342681   2537.418917 -21025.053207     34.219067
PG07   -726.371743  20228.915946  17294.854983    192.294415
PG08  -9796.526280  13585.389747  20525.817738    -27.219407
PG09   6469.348748  25304.886753  -4818.763820   -353.729879
PG10 -20602.070912 -11795.378450  12303.351049   -153.600052
PG11  20700.049272  -6799.248497 -15205.907419      3.794411
PG12  11344.518249 -12018.413823 -21014.351594    -62.768917
PG13  14226.394183  -4898.836215  21748.292895    152.175713
PG14  20118.115761  12680.318167  11865.677173     57.233083
PG15   8672.865568 -15065.318846  19622.400368   -138.479184
PG16 -25018.636580    168.662815   9322.916645   -350.300826
PG17  12899.196948  21256.491104  -8903.125875    467.248387
PG18  -1095.616820 -18676.689158  18809.523620    343.691389
PG19  15399.016474  13995.333940 -16868.309664     20.774273
PG20  24916.001640  -4917.046019   7150.240486    520.610744
PG21 -16976.742948  19841.781132   3666.540217    128.643848
PG22 -17835.303003  10848.414984 -16123.389533   -574.225481
PG23 -10020.607348 -14977.552447  19508.423266     90.137000
PG24  14826.250698 -21771.939327   -509.308161    157.314574
PG25  -2036.513197 -15647.037821 -21658.052812    166.009463
PG26 -26354.425662  -4100.629001  -1471.935435    105.422759
PG27 -15001.757951   1884.054495  21688.600672   -156.233062
PG28  23179.914797  10969.317387   7067.968716    545.109118
PG29  -3586.623202 -25627.866329  -5898.265443   -373.381944
PG30  10506.430463  11884.823232  21355.526269   -445.802506
PG31 -17864.343065   -722.017692 -19867.585869   -126.260684
PG32 -15608.584959 -18414.287731 -11157.235802     16.163523
PJ01 -23377.642721  17326.686608 -25931.220542   -406.806377
PJ02 -30956.731908  24122.543004  20228.678533     -0.533245
PJ03 -26996.826674  27765.700955  21591.131905     -9.748020
PJ07 -25373.236025  33672.887875    -29.562125      0.014041
PR01 -18379.648425 -17447.931762   2834.510761     81.709023
PR02 -18437.702036  -6108.029161 -16524.247941    484.470567
PR03  -7153.362472   8268.781084 -22999.890592     38.710608
PR04   8131.283579  17636.948557 -16504.624238     93.853401
PR05  18717.636789  17295.941321   -778.010342     74.567552
PR07   6542.935295  -8842.909375  23055.201752    -42.173156
PR08  -8106.183615 -17732.624790  16516.056048    -59.762899
PR09  24279.796455  -5402.727931   5847.772015      0.767886
PR11   3514.022377 -12269.871663 -22074.403645    -17.376647
PR12 -15075.928448  -4944.160459 -19948.529207    241.823066
PR13 -24109.934459   5076.146355  -6604.837327    -57.090931
PR14 -19066.383634  12365.245345  11581.326794     65.981117
PR15  -3029.716626  12211.039127  22211.783093    102.932376
PR16  16018.378973   4180.583767  19341.117940    -17.238824
PR17  -9880.165116  20168.035062  12134.871140    437.460823
PR18  -3299.894211  24856.903590  -4531.438758     81.967233
PR19   4187.229581  17255.690816 -18323.373883   -149.912343
PR20  11136.574847  -3013.945212 -22755.133417    -51.797658
PR21   9576.053753 -20879.729699 -11068.625628   -220.729045
PR22   2975.572239 -24768.687505   5530.302348   -120.526553
PR24 -11629.936620   3850.011426  22384.744031     48.763321
EOF
